{
  "norad_id": 53894,
  "name": "STARLINK-5043",
  "history": [
    {
      "epoch": "2026-03-28T19:55:12.297216Z",
      "apogee_km": 540.671918953306,
      "perigee_km": 538.7898438174971,
      "latitude_deg": 5.134452463280496e-05,
      "longitude_deg": 113.18497515712579,
      "height_km": 540.7638865611036,
      "semi_major_axis_km": 6917.867881385401,
      "eccentricity": 0.00013603,
      "inclination_deg": 53.2163,
      "raan_deg": 238.231,
      "arg_perigee_deg": 98.396,
      "mean_anomaly_deg": 261.7187,
      "mean_motion_rev_day": 15.08844092
    }
  ]
}