{"fetched_at":"2026-03-29T16:36:15Z","count":15609,"tles":[{"name":"STARLINK-5043","line1":"1 53894U 22119J   26087.83000344  .00000558  00000+0  53130-4 0  9992","line2":"2 53894  53.2163 238.2310 0001360  98.3960 261.7187 15.08844092194574","category":"Starlink"}]}